*******************************************************************************
Ephemeris / WWW_USER Mon Mar 24 08:47:26 2025 Pasadena, USA      / Horizons    
*******************************************************************************
Target body name: (2018 OG)                       {source: JPL#12}
Center body name: Earth (399)                     {source: DE441}
Center-site name: Mauna Kea
*******************************************************************************
Start time      : A.D. 2018-Nov-22 03:51:00.0000 UT      
Stop  time      : A.D. 2018-Nov-22 16:25:00.0000 UT      
Step-size       : 1 minutes
*******************************************************************************
Target pole/equ : undefined
Target radii    : undefined                                                    
Center geodetic : 204.5278, 19.8260847, 4.21024   {E-lon(deg),Lat(deg),Alt(km)}
Center cylindric: 204.5278, 6006.35451, 2151.0229 {E-lon(deg),Dxy(km),Dz(km)}
Center pole/equ : ITRF93                          {East-longitude positive}
Center radii    : 6378.137, 6378.137, 6356.752 km {Equator_a, b, pole_c}       
Target primary  : Sun
Vis. interferer : MOON (R_eq= 1737.400) km        {source: DE441}
Rel. light bend : Sun                             {source: DE441}
Rel. lght bnd GM: 1.3271E+11 km^3/s^2                                          
Small-body perts: Yes                             {source: SB441-N16}
Atmos refraction: NO (AIRLESS)
RA format       : HMS
Time format     : CAL 
Calendar mode   : Mixed Julian/Gregorian
RTS-only print  : NO       
EOP file        : eop.250321.p250617                                           
EOP coverage    : DATA-BASED 1962-JAN-20 TO 2025-MAR-21. PREDICTS-> 2025-JUN-16
Units conversion: 1 au= 149597870.700 km, c= 299792.458 km/s, 1 day= 86400.0 s 
Table cut-offs 1: Elevation (-90.0deg=NO ),Airmass (>38.000=NO), Daylight (YES)
Table cut-offs 2: Solar elongation (  0.0,180.0=NO ),Local Hour Angle( 0.0=NO )
Table cut-offs 3: RA/DEC angular rate (     0.0=NO )                           
*******************************************************************************
Initial IAU76/J2000 heliocentric ecliptic osculating elements (au, days, deg.):
  EPOCH=  2458389.5 ! 2018-Sep-28.00 (TDB)         Residual RMS= .17662        
   EC= .5817218672922059   QR= .9873203561553971   TP= 2458366.942240702       
   OM= 131.0345430575832   W=  220.7633135105564   IN= 9.123860581277821       
  Equivalent ICRF heliocentric cartesian coordinates (au, au/d):
   X= 9.625437195102586E-01  Y= 3.686106454146055E-01  Z=-5.877845729655690E-03
  VX=-3.555418036941177E-03 VY= 1.979451357965206E-02 VZ= 6.659913004156397E-03
Asteroid physical parameters (km, seconds, rotational period in hours):        
   GM= n.a.                RAD= n.a.               ROTPER= n.a.                
   H= 23.6                 G= .150                 B-V= n.a.                   
                           ALBEDO= n.a.            STYP= n.a.                  
*******************************************************************************
 Date__(UT)__HR:MN     R.A._________(ICRF)_________DEC
******************************************************
$$SOE
 2018-Nov-22 10:00  m  06 05 42.595004 -00 59 21.44803
 2018-Nov-22 10:01  m  06 05 42.518664 -00 59 20.89041
 2018-Nov-22 10:02  m  06 05 42.442311 -00 59 20.33277
 2018-Nov-22 10:03  m  06 05 42.365945 -00 59 19.77512
 2018-Nov-22 10:04  m  06 05 42.289564 -00 59 19.21745
 2018-Nov-22 10:05  m  06 05 42.213171 -00 59 18.65977
 2018-Nov-22 10:06  m  06 05 42.136764 -00 59 18.10208
 2018-Nov-22 10:07  m  06 05 42.060344 -00 59 17.54438
 2018-Nov-22 10:08  m  06 05 41.983910 -00 59 16.98666
 2018-Nov-22 10:09  m  06 05 41.907463 -00 59 16.42893
 2018-Nov-22 10:10  m  06 05 41.831004 -00 59 15.87119
 2018-Nov-22 10:11  m  06 05 41.754531 -00 59 15.31343
 2018-Nov-22 10:12  m  06 05 41.678046 -00 59 14.75566
 2018-Nov-22 10:13  m  06 05 41.601547 -00 59 14.19788
 2018-Nov-22 10:14  m  06 05 41.525037 -00 59 13.64008
 2018-Nov-22 10:15  m  06 05 41.448513 -00 59 13.08227
 2018-Nov-22 10:16  m  06 05 41.371977 -00 59 12.52445
 2018-Nov-22 10:17  m  06 05 41.295428 -00 59 11.96661
 2018-Nov-22 10:18  m  06 05 41.218867 -00 59 11.40876
 2018-Nov-22 10:19  m  06 05 41.142294 -00 59 10.85090
 2018-Nov-22 10:20  m  06 05 41.065709 -00 59 10.29303
 2018-Nov-22 10:21  m  06 05 40.989111 -00 59 09.73514
 2018-Nov-22 10:22  m  06 05 40.912501 -00 59 09.17723
 2018-Nov-22 10:23  m  06 05 40.835880 -00 59 08.61932
 2018-Nov-22 10:24  m  06 05 40.759247 -00 59 08.06139
 2018-Nov-22 10:25  m  06 05 40.682601 -00 59 07.50345
 2018-Nov-22 10:26  m  06 05 40.605945 -00 59 06.94549
 2018-Nov-22 10:27  m  06 05 40.529276 -00 59 06.38752
 2018-Nov-22 10:28  m  06 05 40.452596 -00 59 05.82954
 2018-Nov-22 10:29  m  06 05 40.375905 -00 59 05.27155
 2018-Nov-22 10:30  m  06 05 40.299202 -00 59 04.71354
 2018-Nov-22 10:31  m  06 05 40.222488 -00 59 04.15551
 2018-Nov-22 10:32  m  06 05 40.145763 -00 59 03.59748
 2018-Nov-22 10:33  m  06 05 40.069027 -00 59 03.03943
 2018-Nov-22 10:34  m  06 05 39.992280 -00 59 02.48137
 2018-Nov-22 10:35  m  06 05 39.915522 -00 59 01.92329
 2018-Nov-22 10:36  m  06 05 39.838753 -00 59 01.36520
 2018-Nov-22 10:37  m  06 05 39.761973 -00 59 00.80710
 2018-Nov-22 10:38  m  06 05 39.685183 -00 59 00.24898
 2018-Nov-22 10:39  m  06 05 39.608382 -00 58 59.69085
 2018-Nov-22 10:40  m  06 05 39.531571 -00 58 59.13271
 2018-Nov-22 10:41  m  06 05 39.454749 -00 58 58.57455
 2018-Nov-22 10:42  m  06 05 39.377917 -00 58 58.01638
 2018-Nov-22 10:43  m  06 05 39.301075 -00 58 57.45819
 2018-Nov-22 10:44  m  06 05 39.224223 -00 58 56.90000
 2018-Nov-22 10:45  m  06 05 39.147361 -00 58 56.34179
 2018-Nov-22 10:46  m  06 05 39.070489 -00 58 55.78356
 2018-Nov-22 10:47  m  06 05 38.993607 -00 58 55.22532
 2018-Nov-22 10:48  m  06 05 38.916715 -00 58 54.66707
 2018-Nov-22 10:49  m  06 05 38.839814 -00 58 54.10880
 2018-Nov-22 10:50  m  06 05 38.762903 -00 58 53.55052
 2018-Nov-22 10:51  m  06 05 38.685983 -00 58 52.99223
 2018-Nov-22 10:52  m  06 05 38.609053 -00 58 52.43393
 2018-Nov-22 10:53  m  06 05 38.532114 -00 58 51.87561
 2018-Nov-22 10:54  m  06 05 38.455166 -00 58 51.31727
 2018-Nov-22 10:55  m  06 05 38.378209 -00 58 50.75892
 2018-Nov-22 10:56  m  06 05 38.301242 -00 58 50.20056
 2018-Nov-22 10:57  m  06 05 38.224267 -00 58 49.64219
 2018-Nov-22 10:58  m  06 05 38.147283 -00 58 49.08380
 2018-Nov-22 10:59  m  06 05 38.070291 -00 58 48.52540
 2018-Nov-22 11:00  m  06 05 37.993289 -00 58 47.96698
 2018-Nov-22 11:01  m  06 05 37.916279 -00 58 47.40855
 2018-Nov-22 11:02  m  06 05 37.839261 -00 58 46.85011
 2018-Nov-22 11:03  m  06 05 37.762234 -00 58 46.29165
 2018-Nov-22 11:04  m  06 05 37.685199 -00 58 45.73318
 2018-Nov-22 11:05  m  06 05 37.608156 -00 58 45.17470
 2018-Nov-22 11:06  m  06 05 37.531105 -00 58 44.61620
 2018-Nov-22 11:07  m  06 05 37.454046 -00 58 44.05769
 2018-Nov-22 11:08  m  06 05 37.376979 -00 58 43.49916
 2018-Nov-22 11:09  m  06 05 37.299904 -00 58 42.94062
 2018-Nov-22 11:10  m  06 05 37.222821 -00 58 42.38207
 2018-Nov-22 11:11  m  06 05 37.145731 -00 58 41.82350
 2018-Nov-22 11:12  m  06 05 37.068634 -00 58 41.26492
 2018-Nov-22 11:13  m  06 05 36.991529 -00 58 40.70632
 2018-Nov-22 11:14  m  06 05 36.914416 -00 58 40.14772
 2018-Nov-22 11:15  m  06 05 36.837296 -00 58 39.58909
 2018-Nov-22 11:16  m  06 05 36.760170 -00 58 39.03046
 2018-Nov-22 11:17  m  06 05 36.683036 -00 58 38.47181
 2018-Nov-22 11:18  m  06 05 36.605895 -00 58 37.91314
 2018-Nov-22 11:19  m  06 05 36.528748 -00 58 37.35446
 2018-Nov-22 11:20  m  06 05 36.451593 -00 58 36.79577
 2018-Nov-22 11:21  m  06 05 36.374432 -00 58 36.23707
 2018-Nov-22 11:22  m  06 05 36.297265 -00 58 35.67835
 2018-Nov-22 11:23  m  06 05 36.220091 -00 58 35.11961
 2018-Nov-22 11:24  m  06 05 36.142910 -00 58 34.56087
 2018-Nov-22 11:25  m  06 05 36.065723 -00 58 34.00211
 2018-Nov-22 11:26  m  06 05 35.988531 -00 58 33.44333
 2018-Nov-22 11:27  m  06 05 35.911332 -00 58 32.88454
 2018-Nov-22 11:28  m  06 05 35.834127 -00 58 32.32574
 2018-Nov-22 11:29  m  06 05 35.756916 -00 58 31.76692
 2018-Nov-22 11:30  m  06 05 35.679699 -00 58 31.20809
 2018-Nov-22 11:31  m  06 05 35.602477 -00 58 30.64925
 2018-Nov-22 11:32  m  06 05 35.525249 -00 58 30.09039
 2018-Nov-22 11:33  m  06 05 35.448016 -00 58 29.53152
 2018-Nov-22 11:34  m  06 05 35.370777 -00 58 28.97263
 2018-Nov-22 11:35  m  06 05 35.293533 -00 58 28.41373
 2018-Nov-22 11:36  m  06 05 35.216283 -00 58 27.85482
 2018-Nov-22 11:37  m  06 05 35.139029 -00 58 27.29589
 2018-Nov-22 11:38  m  06 05 35.061769 -00 58 26.73695
 2018-Nov-22 11:39  m  06 05 34.984505 -00 58 26.17799
 2018-Nov-22 11:40  m  06 05 34.907236 -00 58 25.61902
 2018-Nov-22 11:41  m  06 05 34.829962 -00 58 25.06004
 2018-Nov-22 11:42  m  06 05 34.752683 -00 58 24.50104
 2018-Nov-22 11:43  m  06 05 34.675400 -00 58 23.94203
 2018-Nov-22 11:44  m  06 05 34.598113 -00 58 23.38300
 2018-Nov-22 11:45  m  06 05 34.520821 -00 58 22.82396
 2018-Nov-22 11:46  m  06 05 34.443525 -00 58 22.26491
 2018-Nov-22 11:47  m  06 05 34.366224 -00 58 21.70584
 2018-Nov-22 11:48  m  06 05 34.288920 -00 58 21.14676
 2018-Nov-22 11:49  m  06 05 34.211612 -00 58 20.58766
 2018-Nov-22 11:50  m  06 05 34.134300 -00 58 20.02855
 2018-Nov-22 11:51  m  06 05 34.056984 -00 58 19.46943
 2018-Nov-22 11:52  m  06 05 33.979664 -00 58 18.91029
 2018-Nov-22 11:53  m  06 05 33.902341 -00 58 18.35114
 2018-Nov-22 11:54  m  06 05 33.825015 -00 58 17.79197
 2018-Nov-22 11:55  m  06 05 33.747685 -00 58 17.23279
 2018-Nov-22 11:56  m  06 05 33.670352 -00 58 16.67360
 2018-Nov-22 11:57  m  06 05 33.593016 -00 58 16.11439
 2018-Nov-22 11:58  m  06 05 33.515676 -00 58 15.55517
 2018-Nov-22 11:59  m  06 05 33.438334 -00 58 14.99593
 2018-Nov-22 12:00  m  06 05 33.360989 -00 58 14.43668
 2018-Nov-22 12:01  m  06 05 33.283641 -00 58 13.87742
 2018-Nov-22 12:02  m  06 05 33.206290 -00 58 13.31814
